H1 CPF 01  gfz 2022 04 29 00  6191 tandemx   
H2 1003001  6202 36605    2022 04 29 00 59 42 2022 05 04 00 00 42   120 1 1  0 0 0
H9
10 0 59698  20142.000000  0   -5903163.186   -200624.100   3535422.411
10 0 59698  20262.000000  0   -5392927.314      1530.305   4276060.111
10 0 59698  20382.000000  0   -4784962.625    193873.167   4941412.781
10 0 59698  20502.000000  0   -4090140.962    371427.963   5519796.658
10 0 59698  20622.000000  0   -3320930.576    529683.565   6001069.459
10 0 59698  20742.000000  0   -2491163.403    664698.325   6376804.183
10 0 59698  20862.000000  0   -1615779.771    773189.186   6640431.232
10 0 59698  20982.000000  0    -710554.307    852605.184   6787347.318
10 0 59698  21102.000000  0     208189.811    901182.881   6814989.653
10 0 59698  21222.000000  0    1123874.467    917983.133   6722877.374
10 0 59698  21342.000000  0    2019964.565    902909.260   6512619.508
10 0 59698  21462.000000  0    2880265.641    856705.696   6187888.809
10 0 59698  21582.000000  0    3689217.484    780937.144   5754362.339
10 0 59698  21702.000000  0    4432178.514    677948.908   5219627.051
10 0 59698  21822.000000  0    5095694.999    550808.443   4593053.440
10 0 59698  21942.000000  0    5667752.917    403229.110   3885637.833
10 0 59698  22062.000000  0    6138005.819    239479.056   3109812.285
10 0 59698  22182.000000  0    6497971.941     64276.394   2279225.630
10 0 59698  22302.000000  0    6741195.910   -117328.824   1408501.549
10 0 59698  22422.000000  0    6863373.213   -300080.806    512976.213
10 0 59698  22542.000000  0    6862431.492   -478649.397   -391579.351
10 0 59698  22662.000000  0    6738566.801   -647764.587  -1289246.624
10 0 59698  22782.000000  0    6494233.396   -802349.780  -2164248.340
10 0 59698  22902.000000  0    6134088.173   -937650.328  -3001233.149
10 0 59698  23022.000000  0    5664891.864  -1049354.379  -3785549.266
10 0 59698  23142.000000  0    5095370.042  -1133702.687  -4503502.068
10 0 59698  23262.000000  0    4436038.424  -1187584.563  -5142590.096
10 0 59698  23382.000000  0    3698997.982  -1208618.940  -5691716.590
10 0 59698  23502.000000  0    2897703.483  -1195219.116  -6141373.133
10 0 59698  23622.000000  0    2046712.185  -1146638.803  -6483792.939
10 0 59698  23742.000000  0    1161417.676  -1062998.858  -6713073.862
10 0 59698  23862.000000  0     257773.297   -945296.379  -6825269.886
10 0 59698  23982.000000  0    -647990.812   -795394.400  -6818451.612
10 0 59698  24102.000000  0   -1539652.167   -615992.996  -6692735.621
10 0 59698  24222.000000  0   -2401280.165   -410581.682  -6450282.783
10 0 59698  24342.000000  0   -3217514.013   -183374.234  -6095263.883
10 0 59698  24462.000000  0   -3973831.078     60773.291  -5633796.473
10 0 59698  24582.000000  0   -4656805.480    316460.598  -5073850.445
10 0 59698  24702.000000  0   -5254348.967    577855.029  -4425121.729
10 0 59698  24822.000000  0   -5755932.708    838816.492  -3698876.729
10 0 59698  24942.000000  0   -6152783.653   1093033.463  -2907765.658
10 0 59698  25062.000000  0   -6438050.364   1334166.306  -2065608.143
10 0 59698  25182.000000  0   -6606934.107   1555994.528  -1187154.285
10 0 59698  25302.000000  0   -6656782.273   1752565.743   -287824.404
10 0 59698  25422.000000  0   -6587138.342   1918340.395    616568.238
10 0 59698  25542.000000  0   -6399747.475   2048329.916   1510102.677
10 0 59698  25662.000000  0   -6098518.676   2138225.212   2377039.277
10 0 59698  25782.000000  0   -5689442.717   2184511.241   3202106.160
10 0 59698  25902.000000  0   -5180468.168   2184563.937   3970776.240
10 0 59698  26022.000000  0   -4581338.662   2136727.572   4669527.809
10 0 59698  26142.000000  0   -3903397.422   2040371.324   5286083.481
10 0 59698  26262.000000  0   -3159364.462   1895923.945   5809624.524
10 0 59698  26382.000000  0   -2363090.216   1704886.202   6230978.414
10 0 59698  26502.000000  0   -1529290.090   1469819.704   6542774.473
10 0 59698  26622.000000  0    -673267.651   1194312.904   6739565.917
10 0 59698  26742.000000  0     189367.509    882925.834   6817918.041
10 0 59698  26862.000000  0    1042983.635    541114.024   6776464.210
10 0 59698  26982.000000  0    1872208.884    175133.144   6615928.031
10 0 59698  27102.000000  0    2662206.918   -208074.637   6339112.075
10 0 59698  27222.000000  0    3398945.412   -601012.695   5950851.893
10 0 59698  27342.000000  0    4069443.078   -995772.446   5457939.022
10 0 59698  27462.000000  0    4662002.708  -1384191.100   4869007.917
10 0 59698  27582.000000  0    5166426.387  -1758021.458   4194388.096
10 0 59698  27702.000000  0    5574197.311  -2109103.673   3445928.847
10 0 59698  27822.000000  0    5878632.694  -2429541.762   2636792.346
10 0 59698  27942.000000  0    6075000.587  -2711878.551   1781220.786
10 0 59698  28062.000000  0    6160599.404  -2949264.377    894282.450
10 0 59698  28182.000000  0    6134797.465  -3135616.469     -8400.807
10 0 59698  28302.000000  0    5999029.676  -3265763.601   -910936.899
10 0 59698  28422.000000  0    5756752.830  -3335572.865  -1797453.318
10 0 59698  28542.000000  0    5413358.488  -3342054.253  -2652384.152
10 0 59698  28662.000000  0    4976049.699  -3283442.020  -3460748.820
10 0 59698  28782.000000  0    4453682.873  -3159250.521  -4208417.257
10 0 59698  28902.000000  0    3856580.104  -2970304.130  -4882356.124
10 0 59698  29022.000000  0    3196315.944  -2718739.374  -5470851.164
10 0 59698  29142.000000  0    2485486.412  -2407981.069  -5963701.186
10 0 59698  29262.000000  0    1737466.176  -2042694.878  -6352384.499
10 0 59698  29382.000000  0     966155.637  -1628714.949  -6630196.922
10 0 59698  29502.000000  0     185723.429  -1172948.320  -6792356.218
10 0 59698  29622.000000  0    -589649.651   -683260.034  -6836074.944
10 0 59698  29742.000000  0   -1346022.070   -168339.846  -6760602.530
10 0 59698  29862.000000  0   -2069936.540    362448.392  -6567236.505
10 0 59698  29982.000000  0   -2748653.671    899232.418  -6259301.870
10 0 59698  30102.000000  0   -3370371.414   1431810.105  -5842100.475
10 0 59698  30222.000000  0   -3924429.151   1949838.629  -5322830.369
10 0 59698  30342.000000  0   -4401493.802   2443032.205  -4710473.590
10 0 59698  30462.000000  0   -4793722.614   2901365.271  -4015651.320
10 0 59698  30582.000000  0   -5094899.024   3315275.354  -3250449.396
10 0 59698  30702.000000  0   -5300540.399   3675863.395  -2428216.667
10 0 59698  30822.000000  0   -5407972.964   3975086.653  -1563336.057
10 0 59698  30942.000000  0   -5416372.550   4205938.405   -670973.414
10 0 59698  31062.000000  0   -5326768.767   4362610.222    233192.111
10 0 59698  31182.000000  0   -5142011.843   4440632.876   1133250.883
10 0 59698  31302.000000  0   -4866701.023   4436989.637   2013352.401
10 0 59698  31422.000000  0   -4507077.526   4350200.226   2857993.424
10 0 59698  31542.000000  0   -4070884.703   4180374.369   3652298.856
10 0 59698  31662.000000  0   -3567199.355   3929232.132   4382289.791
10 0 59698  31782.000000  0   -3006239.369   3600091.274   5035132.713
10 0 59698  31902.000000  0   -2399151.459   3197822.113   5599365.854
10 0 59698  32022.000000  0   -1757784.503   2728771.617   6065097.997
10 0 59698  32142.000000  0   -1094453.580   2200658.386   6424177.104
10 0 59698  32262.000000  0    -421700.888   1622440.823   6670325.339
10 0 59698  32382.000000  0     247940.866   1004162.740   6799243.017
10 0 59698  32502.000000  0     902181.964    356777.397   6808679.078
10 0 59698  32622.000000  0    1529200.191   -308046.067   6698467.592
10 0 59698  32742.000000  0    2117853.614   -978132.328   6470531.323
10 0 59698  32862.000000  0    2657878.415  -1641022.281   6128850.534
10 0 59698  32982.000000  0    3140069.749  -2284204.347   5679398.816
10 0 59698  33102.000000  0    3556441.762  -2895351.767   5130043.878
10 0 59698  33222.000000  0    3900363.818  -3462560.917   4490415.914
10 0 59698  33342.000000  0    4166670.769  -3974586.892   3771743.621
10 0 59698  33462.000000  0    4351744.520  -4421071.260   2986659.852
10 0 59698  33582.000000  0    4453565.166  -4792756.797   2148979.759
10 0 59698  33702.000000  0    4471729.915  -5081683.312   1273454.314
10 0 59698  33822.000000  0    4407438.385  -5281359.917    375504.681
10 0 59698  33942.000000  0    4263444.635  -5386908.617   -529056.806
10 0 59698  34062.000000  0    4043979.147  -5395177.197  -1424313.225
10 0 59698  34182.000000  0    3754639.623  -5304816.855  -2294532.637
10 0 59698  34302.000000  0    3402255.204  -5116322.664  -3124451.195
10 0 59698  34422.000000  0    2994727.991  -4832036.669  -3899545.622
10 0 59698  34542.000000  0    2540855.239  -4456114.618  -4606288.141
10 0 59698  34662.000000  0    2050137.627  -3994457.017  -5232379.723
10 0 59698  34782.000000  0    1532579.480  -3454606.612  -5766956.246
10 0 59698  34902.000000  0     998485.375  -2845617.929  -6200766.638
10 0 59698  35022.000000  0     458256.099  -2177900.497  -6526322.519
10 0 59698  35142.000000  0     -77811.633  -1463037.567  -6738016.560
10 0 59698  35262.000000  0    -599717.011   -713584.770  -6832208.792
10 0 59698  35382.000000  0   -1097936.318     57147.549  -6807281.904
10 0 59698  35502.000000  0   -1563592.561    835325.118  -6663665.153
10 0 59698  35622.000000  0   -1988609.888   1606831.482  -6403827.619
10 0 59698  35742.000000  0   -2365850.433   2357517.543  -6032240.352
10 0 59698  35862.000000  0   -2689233.753   3073455.863  -5555308.846
10 0 59698  35982.000000  0   -2953835.676   3741197.067  -4981273.676
10 0 59698  36102.000000  0   -3155966.186   4348023.791  -4320080.113
10 0 59698  36222.000000  0   -3293223.406   4882197.055  -3583215.397
10 0 59698  36342.000000  0   -3364521.306   5333188.351  -2783516.863
10 0 59698  36462.000000  0   -3370092.254   5691894.246  -1934955.463
10 0 59698  36582.000000  0   -3311463.603   5950829.672  -1052394.179
99
